{"type": "FeatureCollection", "features": [ {"type": "Feature", "properties": {"norad_id": 37867, "name": "COSMOS 2476 (744)", "group": "gnss", "lat": 1.8500222755302504, "lon": -101.74917471033169, "alt_km": 19095.76715826339, "timestamp": "2025-12-14T18:52:55.745681+00:00", "meta": {"OBJECT_NAME": "COSMOS 2476 (744)", "OBJECT_ID": "2011-064A", "EPOCH": "2025-12-10T19:30:14.482368", "MEAN_MOTION": 2.13101258, "ECCENTRICITY": 0.00238922, "INCLINATION": 65.1614, "RA_OF_ASC_NODE": 79.2364, "ARG_OF_PERICENTER": 233.6597, "MEAN_ANOMALY": 135.7131, "EPHEMERIS_TYPE": 0, "CLASSIFICATION_TYPE": "U", "NORAD_CAT_ID": 37867, "ELEMENT_SET_NO": 999, "REV_AT_EPOCH": 10975, "BSTAR": 0, "MEAN_MOTION_DOT": -2.4e-07, "MEAN_MOTION_DDOT": 0}, "tle": {"line1": "1 37867U 11064A   25344.81266762 -.00000024  00000+0  00000+0 0  9994", "line2": "2 37867  65.1614  79.2364 0023892 233.6597 135.7131  2.13101258109752"}}, "geometry": {"type": "Point", "coordinates": [-101.74917471033169, 1.8500222755302504]}}, {"type": "Feature", "properties": {"norad_id": 37868, "name": "COSMOS 2477 (745)", "group": "gnss", "lat": -0.6632203024203273, "lon": 78.8776825559548, "alt_km": 19161.13220931296, "timestamp": "2025-12-14T18:52:55.745694+00:00", "meta": {"OBJECT_NAME": "COSMOS 2477 (745)", "OBJECT_ID": "2011-064B", "EPOCH": "2025-12-12T21:57:38.702592", "MEAN_MOTION": 2.13102761, "ECCENTRICITY": 0.00211332, "INCLINATION": 65.1692, "RA_OF_ASC_NODE": 79.2429, "ARG_OF_PERICENTER": 234.633, "MEAN_ANOMALY": 128.5252, "EPHEMERIS_TYPE": 0, "CLASSIFICATION_TYPE": "U", "NORAD_CAT_ID": 37868, "ELEMENT_SET_NO": 999, "REV_AT_EPOCH": 10979, "BSTAR": 0, "MEAN_MOTION_DOT": -4.4e-07, "MEAN_MOTION_DDOT": 0}, "tle": {"line1": "1 37868U 11064B   25346.91503128 -.00000044  00000+0  00000+0 0  9990", "line2": "2 37868  65.1692  79.2429 0021133 234.6330 128.5252  2.13102761109791"}}, "geometry": {"type": "Point", "coordinates": [78.8776825559548, -0.6632203024203273]}}, {"type": "Feature", "properties": {"norad_id": 37869, "name": "COSMOS 2475 (743)", "group": "gnss", "lat": -39.68924722711554, "lon": 56.65213696286275, "alt_km": 19108.375532621438, "timestamp": "2025-12-14T18:52:55.745706+00:00", "meta": {"OBJECT_NAME": "COSMOS 2475 (743)", "OBJECT_ID": "2011-064C", "EPOCH": "2025-12-13T13:22:27.614784", "MEAN_MOTION": 2.1310138, "ECCENTRICITY": 0.00262467, "INCLINATION": 65.1766, "RA_OF_ASC_NODE": 79.2411, "ARG_OF_PERICENTER": 248.6291, "MEAN_ANOMALY": 203.1701, "EPHEMERIS_TYPE": 0, "CLASSIFICATION_TYPE": "U", "NORAD_CAT_ID": 37869, "ELEMENT_SET_NO": 999, "REV_AT_EPOCH": 10981, "BSTAR": 0, "MEAN_MOTION_DOT": -5e-07, "MEAN_MOTION_DDOT": 0}, "tle": {"line1": "1 37869U 11064C   25347.55726406 -.00000050  00000+0  00000+0 0  9995", "line2": "2 37869  65.1766  79.2411 0026246 248.6291 203.1701  2.13101380109814"}}, "geometry": {"type": "Point", "coordinates": [56.65213696286275, -39.68924722711554]}}, {"type": "Feature", "properties": {"norad_id": 37948, "name": "BEIDOU-2 IGSO-5 (C10)", "group": "gnss", "lat": -4.072209500094106, "lon": 97.47358031358397, "alt_km": 35408.75463397334, "timestamp": "2025-12-14T18:52:55.745725+00:00", "meta": {"OBJECT_NAME": "BEIDOU-2 IGSO-5 (C10)", "OBJECT_ID": "2011-073A", "EPOCH": "2025-12-12T18:24:47.608416", "MEAN_MOTION": 1.00291151, "ECCENTRICITY": 0.01101752, "INCLINATION": 48.0199, "RA_OF_ASC_NODE": 273.857, "ARG_OF_PERICENTER": 222.308, "MEAN_ANOMALY": 314.7254, "EPHEMERIS_TYPE": 0, "CLASSIFICATION_TYPE": "U", "NORAD_CAT_ID": 37948, "ELEMENT_SET_NO": 999, "REV_AT_EPOCH": 5126, "BSTAR": 0, "MEAN_MOTION_DOT": -2.21e-06, "MEAN_MOTION_DDOT": 0}, "tle": {"line1": "1 37948U 11073A   25346.76721769 -.00000221  00000+0  00000+0 0  9992", "line2": "2 37948  48.0199 273.8570 0110175 222.3080 314.7254  1.00291151 51268"}}, "geometry": {"type": "Point", "coordinates": [97.47358031358397, -4.072209500094106]}}, {"type": "Feature", "properties": {"norad_id": 37951, "name": "LUCH 5A (SDCM/PRN 140)", "group": "gnss", "lat": 8.21504818697117, "lon": 174.04052811313136, "alt_km": 35781.79480952248, "timestamp": "2025-12-14T18:52:55.745740+00:00", "meta": {"OBJECT_NAME": "LUCH 5A (SDCM/PRN 140)", "OBJECT_ID": "2011-074B", "EPOCH": "2025-12-13T22:48:14.312160", "MEAN_MOTION": 1.00275268, "ECCENTRICITY": 0.00054543, "INCLINATION": 8.2831, "RA_OF_ASC_NODE": 76.5681, "ARG_OF_PERICENTER": 181.861, "MEAN_ANOMALY": 333.5869, "EPHEMERIS_TYPE": 0, "CLASSIFICATION_TYPE": "U", "NORAD_CAT_ID": 37951, "ELEMENT_SET_NO": 999, "REV_AT_EPOCH": 5119, "BSTAR": 0, "MEAN_MOTION_DOT": -3.5e-07, "MEAN_MOTION_DDOT": 0}, "tle": {"line1": "1 37951U 11074B   25347.95016565 -.00000035  00000+0  00000+0 0  9993", "line2": "2 37951   8.2831  76.5681 0005454 181.8610 333.5869  1.00275268 51199"}}, "geometry": {"type": "Point", "coordinates": [174.04052811313136, 8.21504818697117]}}, {"type": "Feature", "properties": {"norad_id": 38091, "name": "BEIDOU-2 G5 (C05)", "group": "gnss", "lat": -0.24150203451174576, "lon": 65.869444397863, "alt_km": 35816.775568437915, "timestamp": "2025-12-14T18:52:55.745753+00:00", "meta": {"OBJECT_NAME": "BEIDOU-2 G5 (C05)", "OBJECT_ID": "2012-008A", "EPOCH": "2025-12-14T00:00:07.426080", "MEAN_MOTION": 1.00276224, "ECCENTRICITY": 0.001255, "INCLINATION": 3.1127, "RA_OF_ASC_NODE": 70.708, "ARG_OF_PERICENTER": 228.1949, "MEAN_ANOMALY": 202.8627, "EPHEMERIS_TYPE": 0, "CLASSIFICATION_TYPE": "U", "NORAD_CAT_ID": 38091, "ELEMENT_SET_NO": 999, "REV_AT_EPOCH": 5051, "BSTAR": 0, "MEAN_MOTION_DOT": 7.1e-07, "MEAN_MOTION_DDOT": 0}, "tle": {"line1": "1 38091U 12008A   25348.00008595  .00000071  00000+0  00000+0 0  9997", "line2": "2 38091   3.1127  70.7080 0012550 228.1949 202.8627  1.00276224 50519"}}, "geometry": {"type": "Point", "coordinates": [65.869444397863, -0.24150203451174576]}}, {"type": "Feature", "properties": {"norad_id": 38250, "name": "BEIDOU-2 M3 (C11)", "group": "gnss", "lat": -23.27102140248009, "lon": 147.98767771705118, "alt_km": 21503.490305425403, "timestamp": "2025-12-14T18:52:55.745765+00:00", "meta": {"OBJECT_NAME": "BEIDOU-2 M3 (C11)", "OBJECT_ID": "2012-018A", "EPOCH": "2025-12-13T09:37:38.892576", "MEAN_MOTION": 1.86229834, "ECCENTRICITY": 0.0024285, "INCLINATION": 55.9192, "RA_OF_ASC_NODE": 311.1346, "ARG_OF_PERICENTER": 274.3126, "MEAN_ANOMALY": 85.3992, "EPHEMERIS_TYPE": 0, "CLASSIFICATION_TYPE": "U", "NORAD_CAT_ID": 38250, "ELEMENT_SET_NO": 999, "REV_AT_EPOCH": 9248, "BSTAR": 0, "MEAN_MOTION_DOT": -9.5e-07, "MEAN_MOTION_DDOT": 0}, "tle": {"line1": "1 38250U 12018A   25347.40114459 -.00000095  00000+0  00000+0 0  9992", "line2": "2 38250  55.9192 311.1346 0024285 274.3126  85.3992  1.86229834 92488"}}, "geometry": {"type": "Point", "coordinates": [147.98767771705118, -23.27102140248009]}}, {"type": "Feature", "properties": {"norad_id": 38251, "name": "BEIDOU-2 M4 (C12)", "group": "gnss", "lat": -52.79199969677083, "lon": -166.25929252887562, "alt_km": 21494.26608875204, "timestamp": "2025-12-14T18:52:55.745776+00:00", "meta": {"OBJECT_NAME": "BEIDOU-2 M4 (C12)", "OBJECT_ID": "2012-018B", "EPOCH": "2025-12-13T07:59:48.422112", "MEAN_MOTION": 1.86229462, "ECCENTRICITY": 0.00154528, "INCLINATION": 55.8208, "RA_OF_ASC_NODE": 310.3658, "ARG_OF_PERICENTER": 277.4494, "MEAN_ANOMALY": 82.3644, "EPHEMERIS_TYPE": 0, "CLASSIFICATION_TYPE": "U", "NORAD_CAT_ID": 38251, "ELEMENT_SET_NO": 999, "REV_AT_EPOCH": 9248, "BSTAR": 0, "MEAN_MOTION_DOT": -9.5e-07, "MEAN_MOTION_DDOT": 0}, "tle": {"line1": "1 38251U 12018B   25347.33319933 -.00000095  00000+0  00000+0 0  9999", "line2": "2 38251  55.8208 310.3658 0015452 277.4494  82.3644  1.86229462 92489"}}, "geometry": {"type": "Point", "coordinates": [-166.25929252887562, -52.79199969677083]}}, {"type": "Feature", "properties": {"norad_id": 38652, "name": "SES-5 (EGNOS/PRN 136)", "group": "gnss", "lat": 0.06464750385608195, "lon": 11.921507821495942, "alt_km": 35788.2174157909, "timestamp": "2025-12-14T18:52:55.745788+00:00", "meta": {"OBJECT_NAME": "SES-5 (EGNOS/PRN 136)", "OBJECT_ID": "2012-036A", "EPOCH": "2025-12-13T22:23:38.652000", "MEAN_MOTION": 1.00271859, "ECCENTRICITY": 0.00020267, "INCLINATION": 0.0568, "RA_OF_ASC_NODE": 305.258, "ARG_OF_PERICENTER": 321.7228, "MEAN_ANOMALY": 156.765, "EPHEMERIS_TYPE": 0, "CLASSIFICATION_TYPE": "U", "NORAD_CAT_ID": 38652, "ELEMENT_SET_NO": 999, "REV_AT_EPOCH": 4260, "BSTAR": 0, "MEAN_MOTION_DOT": 5e-07, "MEAN_MOTION_DDOT": 0}, "tle": {"line1": "1 38652U 12036A   25347.93308625  .00000050  00000+0  00000+0 0  9996", "line2": "2 38652   0.0568 305.2580 0002026 321.7228 156.7650  1.00271859 42608"}}, "geometry": {"type": "Point", "coordinates": [11.921507821495942, 0.06464750385608195]}}, {"type": "Feature", "properties": {"norad_id": 38775, "name": "BEIDOU-2 M6 (C14)", "group": "gnss", "lat": 56.37032284880996, "lon": 156.25995790135644, "alt_km": 21528.98023254429, "timestamp": "2025-12-14T18:52:55.745800+00:00", "meta": {"OBJECT_NAME": "BEIDOU-2 M6 (C14)", "OBJECT_ID": "2012-050B", "EPOCH": "2025-12-11T10:23:51.015840", "MEAN_MOTION": 1.86230797, "ECCENTRICITY": 0.00111593, "INCLINATION": 56.3773, "RA_OF_ASC_NODE": 69.1107, "ARG_OF_PERICENTER": 344.6089, "MEAN_ANOMALY": 15.3783, "EPHEMERIS_TYPE": 0, "CLASSIFICATION_TYPE": "U", "NORAD_CAT_ID": 38775, "ELEMENT_SET_NO": 999, "REV_AT_EPOCH": 8981, "BSTAR": 0, "MEAN_MOTION_DOT": -6.3e-07, "MEAN_MOTION_DDOT": 0}, "tle": {"line1": "1 38775U 12050B   25345.43322935 -.00000063  00000+0  00000+0 0  9996", "line2": "2 38775  56.3773  69.1107 0011159 344.6089  15.3783  1.86230797 89814"}}, "geometry": {"type": "Point", "coordinates": [156.25995790135644, 56.37032284880996]}}]}